BEIJING 1               
1 28890U 05043A   20330.48553640  .00000058  00000-0  20954-4 0  9999
2 28890  98.0516  94.7661 0015793 153.3977 206.8033 14.61308071804039
HJ-1A                   
1 33320U 08041A   20330.42623755  .00000055  00000-0  14890-4 0  9992
2 33320  97.7667  16.6489 0025938 266.9352  92.8893 14.77093927658365
HJ-1B                   
1 33321U 08041B   20330.40296616  .00000230  00000-0  39339-4 0  9993
2 33321  97.7748  19.1308 0033538 298.6688  61.1159 14.77287206658362
YAOGAN 4                
1 33446U 08061A   20330.43997959  .00000112  00000-0  22787-4 0  9992
2 33446  97.7488 279.4073 0016255 172.9654 187.1788 14.77061362645596
DEIMOS-1                
1 35681U 09041A   20330.47639619  .00000077  00000-0  19742-4 0  9991
2 35681  97.7845 197.3674 0000407 179.9426 180.1793 14.71856110608075
UK-DMC 2                
1 35683U 09041C   20330.51096664  .00000066  00000-0  18071-4 0  9997
2 35683  97.6874 164.2117 0001121  75.3735 284.7609 14.71172049607853
RISAT 1                 
1 38248U 12017A   20330.52703601  .00000823  00000-0  54240-4 0  9990
2 38248  97.5648 337.7866 0005615  63.1628 297.0175 15.10236675472942
DMC3-FM1                
1 40715U 15032A   20330.44022242  .00000039  00000-0  13621-4 0  9995
2 40715  97.9126 220.3650 0017031  68.6756 291.6259 14.73672845289360
DMC3-FM2                
1 40716U 15032B   20330.46332707  .00000037  00000-0  13254-4 0  9998
2 40716  97.9154 220.7949 0014410  77.2549 283.0265 14.73686644289376
DMC3-FM3                
1 40717U 15032C   20330.41766841  .00000040  00000-0  13740-4 0  9998
2 40717  97.9170 221.4997 0017936  70.2199 290.0940 14.73688083289362
